GLOBALSTAR M084         
1 38040U 11080A   24256.55582096 -.00000076  00000+0  15720-3 0  9995
2 38040  52.0001 173.6859 0000590  91.7727  79.8938 12.62267222587603
GLOBALSTAR M080         
1 38041U 11080B   24256.52933587 -.00000084  00000+0  11067-3 0  9997
2 38041  52.0052 175.2760 0000884  90.0544  81.1301 12.62265354587721
GLOBALSTAR M082         
1 38042U 11080C   24256.83914362 -.00000072  00000+0  17456-3 0  9997
2 38042  52.0066 129.7504 0000585  25.9783  53.7967 12.62266490588644
GLOBALSTAR M092         
1 38043U 11080D   24256.43273247 -.00000084  00000+0  11214-3 0  9993
2 38043  52.0066 221.3480 0000273  83.4216  68.8293 12.62265827586876
GLOBALSTAR M090         
1 38044U 11080E   24256.41034406 -.00000087  00000+0  91691-4 0  9995
2 38044  51.9874 125.2218 0000663  51.4531 118.8155 12.62267477588532
GLOBALSTAR M086         
1 38045U 11080F   24256.81229154 -.00000086  00000+0  97650-4 0  9996
2 38045  51.9886 124.5262 0001668  67.9963  10.3486 12.62266941588633
GLOBALSTAR M097         
1 39072U 13005A   24256.58435607 -.00000097  00000+0  38717-4 0  9993
2 39072  52.0063  39.4852 0000865  74.4484 285.6478 12.62270359535752
GLOBALSTAR M093         
1 39073U 13005B   24256.63662427 -.00000084  00000+0  10903-3 0  9994
2 39073  51.9832  33.0701 0000798  71.8722 288.2231 12.62263936535837
